LYNK TOWER 6            
1 59123U 24043AB  26068.89488777  .00011440  00000+0  40142-3 0  9996
2 59123  97.5426 204.1954 0009749 232.0253 128.0107 15.29548678111845
STARLINK-31782          
1 59606U 24080F   26068.00697171  .00000535  00000+0  28975-4 0  9990
2 59606  43.0026  45.6133 0001265 267.9937  92.0770 15.27579787104381
